[{"OBJECT_NAME":"ICEYE-X7","OBJECT_ID":"2020-068L","EPOCH":"2026-03-09T22:52:28.702272","MEAN_MOTION":15.29152508,"ECCENTRICITY":0.00068409,"INCLINATION":97.7412,"RA_OF_ASC_NODE":31.2076,"ARG_OF_PERICENTER":332.3045,"MEAN_ANOMALY":27.7829,"EPHEMERIS_TYPE":0,"CLASSIFICATION_TYPE":"U","NORAD_CAT_ID":46496,"ELEMENT_SET_NO":999,"REV_AT_EPOCH":29961,"BSTAR":0.0005654802,"MEAN_MOTION_DOT":0.00015947,"MEAN_MOTION_DDOT":0},{"OBJECT_NAME":"STARLINK-32706","OBJECT_ID":"2024-239H","EPOCH":"2026-03-09T13:57:31.314816","MEAN_MOTION":15.301931,"ECCENTRICITY":0.0001231,"INCLINATION":53.159,"RA_OF_ASC_NODE":194.6839,"ARG_OF_PERICENTER":109.9886,"MEAN_ANOMALY":250.1247,"EPHEMERIS_TYPE":0,"CLASSIFICATION_TYPE":"U","NORAD_CAT_ID":62308,"ELEMENT_SET_NO":999,"REV_AT_EPOCH":6936,"BSTAR":0.00053663,"MEAN_MOTION_DOT":0.00015564,"MEAN_MOTION_DDOT":0}]
